start=new Date('2022-12-28T00:00:00.000Z').valueOf();
sats=[{"MEAN_MOTION_DDOT":"0.0000000000000","MEAN_MOTION_DOT":"0.00004487","OBJECT_NAME":"STARLINK-1340","SEMIMAJOR_AXIS":"6925.282","EPOCH":"2022-12-27T19:53:36.307680","TLE_LINE2":"2 45583  53.0546 279.3620 0001760  79.7536 280.3651 15.06421694149489","SITE":"AFETR","ELEMENT_SET_NO":"999","RA_OF_ASC_NODE":"279.3620","OBJECT_ID":"2020-025BE","INCLINATION":"53.0546","BSTAR":"0.00031973000000","LAUNCH_DATE":"2020-04-22","CLASSIFICATION_TYPE":"U","ARG_OF_PERICENTER":"79.7536","MEAN_ELEMENT_THEORY":"SGP4","FILE":"3724149","DECAY_DATE":null,"NORAD_CAT_ID":"45583","COUNTRY_CODE":"US","PERIAPSIS":"545.928","GP_ID":"221619596","OBJECT_TYPE":"PAYLOAD","TIME_SYSTEM":"UTC","TLE_LINE1":"1 45583U 20025BE  22361.82889245  .00004487  00000-0  31973-3 0  9993","MEAN_ANOMALY":"280.3651","EPHEMERIS_TYPE":"0","REF_FRAME":"TEME","CENTER_NAME":"EARTH","MEAN_MOTION":"15.06421694","REV_AT_EPOCH":"14948","ECCENTRICITY":"0.00017600","RCS_SIZE":"LARGE","PERIOD":"95.591","APOAPSIS":"548.366"},{"MEAN_MOTION_DDOT":"0.0000000000000","MEAN_MOTION_DOT":"0.00002625","SEMIMAJOR_AXIS":"6925.344","OBJECT_NAME":"STARLINK-1343","EPOCH":"2022-12-27T18:00:47.146752","TLE_LINE2":"2 45584  53.0542 279.7024 0001665  61.2741 298.8415 15.06401333149475","SITE":"AFETR","ELEMENT_SET_NO":"999","RA_OF_ASC_NODE":"279.7024","OBJECT_ID":"2020-025BF","BSTAR":"0.00019507000000","INCLINATION":"53.0542","LAUNCH_DATE":"2020-04-22","CLASSIFICATION_TYPE":"U","ARG_OF_PERICENTER":"61.2741","FILE":"3724149","MEAN_ELEMENT_THEORY":"SGP4","DECAY_DATE":null,"NORAD_CAT_ID":"45584","PERIAPSIS":"546.056","COUNTRY_CODE":"US","GP_ID":"221618346","OBJECT_TYPE":"PAYLOAD","TIME_SYSTEM":"UTC","TLE_LINE1":"1 45584U 20025BF  22361.75054568  .00002625  00000-0  19507-3 0  9999","MEAN_ANOMALY":"298.8415","EPHEMERIS_TYPE":"0","REF_FRAME":"TEME","CENTER_NAME":"EARTH","MEAN_MOTION":"15.06401333","REV_AT_EPOCH":"14947","ECCENTRICITY":"0.00016650","RCS_SIZE":"LARGE","PERIOD":"95.592","APOAPSIS":"548.363"},{"BSTAR":"0.00009601000000","INCLINATION":"53.0524","LAUNCH_DATE":"2020-04-22","CLASSIFICATION_TYPE":"U","ARG_OF_PERICENTER":"82.5757","MEAN_ELEMENT_THEORY":"SGP4","FILE":"3723863","DECAY_DATE":null,"NORAD_CAT_ID":"45586","MEAN_MOTION_DDOT":"0.0000000000000","MEAN_MOTION_DOT":"0.00001149","SEMIMAJOR_AXIS":"6925.327","OBJECT_NAME":"STARLINK-1347","EPOCH":"2022-12-27T04:14:09.096288","TLE_LINE2":"2 45586  53.0524 282.2894 0001693  82.5757 277.5424 15.06407133149372","SITE":"AFETR","ELEMENT_SET_NO":"999","RA_OF_ASC_NODE":"282.2894","OBJECT_ID":"2020-025BH","ECCENTRICITY":"0.00016930","RCS_SIZE":"LARGE","PERIOD":"95.592","APOAPSIS":"548.364","PERIAPSIS":"546.019","COUNTRY_CODE":"US","GP_ID":"221561342","TIME_SYSTEM":"UTC","OBJECT_TYPE":"PAYLOAD","TLE_LINE1":"1 45586U 20025BH  22361.17649417  .00001149  00000-0  96010-4 0  9995","MEAN_ANOMALY":"277.5424","EPHEMERIS_TYPE":"0","REF_FRAME":"TEME","CENTER_NAME":"EARTH","MEAN_MOTION":"15.06407133","REV_AT_EPOCH":"14937"},{"GP_ID":"221595746","TIME_SYSTEM":"UTC","OBJECT_TYPE":"PAYLOAD","TLE_LINE1":"1 45587U 20025BJ  22361.47873237  .00002168  00000-0  16438-3 0  9995","PERIAPSIS":"546.322","COUNTRY_CODE":"US","CENTER_NAME":"EARTH","MEAN_MOTION":"15.06401831","REV_AT_EPOCH":"14883","EPHEMERIS_TYPE":"0","MEAN_ANOMALY":"259.3178","REF_FRAME":"TEME","RCS_SIZE":"LARGE","PERIOD":"95.592","ECCENTRICITY":"0.00012790","APOAPSIS":"548.094","OBJECT_NAME":"STARLINK-1349","SEMIMAJOR_AXIS":"6925.343","MEAN_MOTION_DOT":"0.00002168","MEAN_MOTION_DDOT":"0.0000000000000","RA_OF_ASC_NODE":"280.9268","OBJECT_ID":"2020-025BJ","ELEMENT_SET_NO":"999","TLE_LINE2":"2 45587  53.0549 280.9268 0001279 100.7955 259.3178 15.06401831148836","SITE":"AFETR","EPOCH":"2022-12-27T11:29:22.476768","BSTAR":"0.00016438000000","INCLINATION":"53.0549","LAUNCH_DATE":"2020-04-22","NORAD_CAT_ID":"45587","ARG_OF_PERICENTER":"100.7955","CLASSIFICATION_TYPE":"U","DECAY_DATE":null,"FILE":"3723996","MEAN_ELEMENT_THEORY":"SGP4"},{"EPHEMERIS_TYPE":"0","MEAN_ANOMALY":"289.9540","REF_FRAME":"TEME","CENTER_NAME":"EARTH","MEAN_MOTION":"15.06421246","REV_AT_EPOCH":"14883","PERIAPSIS":"546.108","COUNTRY_CODE":"US","OBJECT_TYPE":"PAYLOAD","GP_ID":"221598319","TIME_SYSTEM":"UTC","TLE_LINE1":"1 45588U 20025BK  22361.52296922  .00012625  00000-0  86445-3 0  9996","APOAPSIS":"548.189","ECCENTRICITY":"0.00015020","RCS_SIZE":"LARGE","PERIOD":"95.591","ELEMENT_SET_NO":"999","TLE_LINE2":"2 45588  53.0534 280.7224 0001502  70.1610 289.9540 15.06421246148832","EPOCH":"2022-12-27T12:33:04.540608","SITE":"AFETR","RA_OF_ASC_NODE":"280.7224","OBJECT_ID":"2020-025BK","MEAN_MOTION_DOT":"0.00012625","MEAN_MOTION_DDOT":"0.0000000000000","OBJECT_NAME":"STARLINK-1360","SEMIMAJOR_AXIS":"6925.283","ARG_OF_PERICENTER":"70.1610","CLASSIFICATION_TYPE":"U","DECAY_DATE":null,"FILE":"3724095","MEAN_ELEMENT_THEORY":"SGP4","NORAD_CAT_ID":"45588","INCLINATION":"53.0534","BSTAR":"0.00086445000000","LAUNCH_DATE":"2020-04-22"},{"CLASSIFICATION_TYPE":"U","ARG_OF_PERICENTER":"66.5883","MEAN_ELEMENT_THEORY":"SGP4","FILE":"3723973","DECAY_DATE":null,"NORAD_CAT_ID":"45589","BSTAR":"0.00060739000000","INCLINATION":"53.0529","LAUNCH_DATE":"2020-04-22","EPOCH":"2022-12-27T12:27:45.775584","TLE_LINE2":"2 45589  53.0529 280.7490 0001762  66.5883 293.5291 15.06414518148839","SITE":"AFETR","ELEMENT_SET_NO":"999","RA_OF_ASC_NODE":"280.7490","OBJECT_ID":"2020-025BL","MEAN_MOTION_DDOT":"0.0000000000000","MEAN_MOTION_DOT":"0.00008781","SEMIMAJOR_AXIS":"6925.304","OBJECT_NAME":"STARLINK-1364","APOAPSIS":"548.389","ECCENTRICITY":"0.00017620","RCS_SIZE":"LARGE","PERIOD":"95.591","MEAN_ANOMALY":"293.5291","EPHEMERIS_TYPE":"0","REF_FRAME":"TEME","CENTER_NAME":"EARTH","REV_AT_EPOCH":"14883","MEAN_MOTION":"15.06414518","PERIAPSIS":"545.949","COUNTRY_CODE":"US","OBJECT_TYPE":"PAYLOAD","GP_ID":"221595296","TIME_SYSTEM":"UTC","TLE_LINE1":"1 45589U 20025BL  22361.51927981  .00008781  00000-0  60739-3 0  9998"},{"INCLINATION":"53.0552","BSTAR":"0.00021812000000","LAUNCH_DATE":"2020-04-22","ARG_OF_PERICENTER":"39.5804","CLASSIFICATION_TYPE":"U","DECAY_DATE":null,"FILE":"3724149","MEAN_ELEMENT_THEORY":"SGP4","NORAD_CAT_ID":"45590","MEAN_MOTION_DOT":"0.00002970","MEAN_MOTION_DDOT":"0.0000000000000","SEMIMAJOR_AXIS":"6925.309","OBJECT_NAME":"STARLINK-1365","ELEMENT_SET_NO":"999","TLE_LINE2":"2 45590  53.0552 310.3726 0002480  39.5804 320.5366 15.06413015149049","EPOCH":"2022-12-27T14:25:50.704320","SITE":"AFETR","RA_OF_ASC_NODE":"310.3726","OBJECT_ID":"2020-025BM","ECCENTRICITY":"0.00024800","RCS_SIZE":"LARGE","PERIOD":"95.591","APOAPSIS":"548.891","COUNTRY_CODE":"US","PERIAPSIS":"545.456","OBJECT_TYPE":"PAYLOAD","GP_ID":"221619096","TIME_SYSTEM":"UTC","TLE_LINE1":"1 45590U 20025BM  22361.60128130  .00002970  00000-0  21812-3 0  9992","EPHEMERIS_TYPE":"0","MEAN_ANOMALY":"320.5366","REF_FRAME":"TEME","CENTER_NAME":"EARTH","REV_AT_EPOCH":"14904","MEAN_MOTION":"15.06413015"},{"ECCENTRICITY":"0.00016150","RCS_SIZE":"LARGE","PERIOD":"95.593","APOAPSIS":"548.359","COUNTRY_CODE":"US","PERIAPSIS":"546.122","GP_ID":"221562348","TIME_SYSTEM":"UTC","OBJECT_TYPE":"PAYLOAD","TLE_LINE1":"1 45658U 20035B   22361.17742598  .00001092  00000-0  92245-4 0  9993","MEAN_ANOMALY":"303.1661","EPHEMERIS_TYPE":"0","REF_FRAME":"TEME","CENTER_NAME":"EARTH","REV_AT_EPOCH":"14261","MEAN_MOTION":"15.06391252","INCLINATION":"53.0559","BSTAR":"0.00009224500000","LAUNCH_DATE":"2020-06-04","CLASSIFICATION_TYPE":"U","ARG_OF_PERICENTER":"56.9483","DECAY_DATE":null,"FILE":"3723863","MEAN_ELEMENT_THEORY":"SGP4","NORAD_CAT_ID":"45658","MEAN_MOTION_DDOT":"0.0000000000000","MEAN_MOTION_DOT":"0.00001092","SEMIMAJOR_AXIS":"6925.375","OBJECT_NAME":"STARLINK-1441","TLE_LINE2":"2 45658  53.0559 272.2755 0001615  56.9483 303.1661 15.06391252142613","EPOCH":"2022-12-27T04:15:29.604672","SITE":"AFETR","ELEMENT_SET_NO":"999","RA_OF_ASC_NODE":"272.2755","OBJECT_ID":"2020-035B"},{"LAUNCH_DATE":"2020-06-04","INCLINATION":"53.0537","BSTAR":"0.00019854000000","FILE":"3724133","DECAY_DATE":null,"MEAN_ELEMENT_THEORY":"SGP4","CLASSIFICATION_TYPE":"U","ARG_OF_PERICENTER":"118.2397","NORAD_CAT_ID":"45659","MEAN_MOTION_DDOT":"0.0000000000000","MEAN_MOTION_DOT":"0.00002678","SEMIMAJOR_AXIS":"6925.303","OBJECT_NAME":"STARLINK-1442","EPOCH":"2022-12-27T10:41:33.936288","TLE_LINE2":"2 45659  53.0537 271.0689 0001554 118.2397 241.8749 15.06414862142248","SITE":"AFETR","ELEMENT_SET_NO":"999","OBJECT_ID":"2020-035C","RA_OF_ASC_NODE":"271.0689","ECCENTRICITY":"0.00015540","PERIOD":"95.591","RCS_SIZE":"LARGE","APOAPSIS":"548.244","COUNTRY_CODE":"US","PERIAPSIS":"546.092","TLE_LINE1":"1 45659U 20035C   22361.44553167  .00002678  00000-0  19854-3 0  9991","GP_ID":"221599032","OBJECT_TYPE":"PAYLOAD","TIME_SYSTEM":"UTC","REF_FRAME":"TEME","MEAN_ANOMALY":"241.8749","EPHEMERIS_TYPE":"0","MEAN_MOTION":"15.06414862","REV_AT_EPOCH":"14224","CENTER_NAME":"EARTH"},{"LAUNCH_DATE":"2020-06-04","BSTAR":"0.00052272000000","INCLINATION":"53.0561","FILE":"3724149","MEAN_ELEMENT_THEORY":"SGP4","DECAY_DATE":null,"ARG_OF_PERICENTER":"89.6171","CLASSIFICATION_TYPE":"U","NORAD_CAT_ID":"45660","MEAN_MOTION_DOT":"0.00007517","MEAN_MOTION_DDOT":"0.0000000000000","SEMIMAJOR_AXIS":"6925.293","OBJECT_NAME":"STARLINK-1443","ELEMENT_SET_NO":"999","SITE":"AFETR","TLE_LINE2":"2 45660  53.0561 269.5551 0001617  89.6171 270.5004 15.06417975142700","EPOCH":"2022-12-27T18:51:14.626080","OBJECT_ID":"2020-035D","RA_OF_ASC_NODE":"269.5551","ECCENTRICITY":"0.00016170","PERIOD":"95.591","RCS_SIZE":"LARGE","APOAPSIS":"548.278","COUNTRY_CODE":"US","PERIAPSIS":"546.039","TLE_LINE1":"1 45660U 20035D   22361.78558595  .00007517  00000-0  52272-3 0  9998","GP_ID":"221619101","OBJECT_TYPE":"PAYLOAD","TIME_SYSTEM":"UTC","REF_FRAME":"TEME","EPHEMERIS_TYPE":"0","MEAN_ANOMALY":"270.5004","MEAN_MOTION":"15.06417975","REV_AT_EPOCH":"14270","CENTER_NAME":"EARTH"}];
